[{"OBJECT_NAME":"HAWK-11A","OBJECT_ID":"2024-247F","EPOCH":"2026-03-09T12:17:43.893312","MEAN_MOTION":15.28849427,"ECCENTRICITY":0.00054663,"INCLINATION":44.9941,"RA_OF_ASC_NODE":114.3328,"ARG_OF_PERICENTER":327.3713,"MEAN_ANOMALY":32.6832,"EPHEMERIS_TYPE":0,"CLASSIFICATION_TYPE":"U","NORAD_CAT_ID":62382,"ELEMENT_SET_NO":999,"REV_AT_EPOCH":6774,"BSTAR":0.00034106017,"MEAN_MOTION_DOT":9.457e-5,"MEAN_MOTION_DDOT":0},{"OBJECT_NAME":"STARLINK-32725","OBJECT_ID":"2025-003U","EPOCH":"2026-03-09T00:26:27.849696","MEAN_MOTION":15.27605123,"ECCENTRICITY":0.00011864,"INCLINATION":42.9993,"RA_OF_ASC_NODE":292.3326,"ARG_OF_PERICENTER":247.747,"MEAN_ANOMALY":112.3256,"EPHEMERIS_TYPE":0,"CLASSIFICATION_TYPE":"U","NORAD_CAT_ID":62505,"ELEMENT_SET_NO":999,"REV_AT_EPOCH":6645,"BSTAR":0.0010130603,"MEAN_MOTION_DOT":0.00027741,"MEAN_MOTION_DDOT":0}]
